STARLINK-6062           
1 56104U 23046M   26175.59109595  .00000154  00000+0  15129-4 0  9996
2 56104  43.0017 277.5827 0001538 284.6332  75.4349 15.27575088178383
STARLINK-31094          
1 58593U 23200E   26176.58767662  .00001287  00000+0  56283-4 0  9991
2 58593  43.0044 279.4020 0001216 295.7303  64.3423 15.27579095140119
STARLINK-33910          
1 63916U 25095AC  26176.71879448  .00034124  00000+0  12422-2 0  9992
2 63916  43.0014 285.7628 0002137 278.4096  81.6513 15.27621364 64300
STARLINK-33801          
1 63963U 25099M   26176.61498690  .00030773  00000+0  11218-2 0  9991
2 63963  43.0031 286.5789 0005344 291.9683  68.0600 15.27607557 63845
STARLINK-36255          
1 67102U 25299A   26176.76466387  .00016131  00000+0  59406-3 0  9990
2 67102  42.9975 278.7556 0001375 263.0005  97.0690 15.27600309 29641
STARLINK-36259          
1 67106U 25299E   26176.66715490  .00019581  00000+0  71843-3 0  9996
2 67106  43.0012 278.8805 0000451 264.8577  95.2223 15.27614235 29638
