{
  "schema": "int-temerity-real-tle-snapshot/v1",
  "source": "celestrak",
  "group": "STARLINK",
  "format": "celestrak-gp-json",
  "source_url": "https://celestrak.org/NORAD/elements/gp.php?NAME=STARLINK&FORMAT=JSON",
  "downloaded_at": "2026-06-26T09:52:00.103Z",
  "generated_at": "2026-06-26T09:52:00.244Z",
  "fingerprint": "ba85ff7c",
  "shell_id": "starlink-real-43deg-490km",
  "catalog_count": 10658,
  "shell_count": 3264,
  "selected_count": 64,
  "mean_altitude_km": 490.15,
  "mean_inclination_deg": 43.002,
  "mean_mean_motion_rev_per_day": 15.27590899,
  "layout": {
    "planes": 8,
    "satellites_per_plane": 8,
    "selection_strategy": "largest-shell-raan-clusters-even-slot-sampling",
    "raan_cluster_threshold_deg": 1.5
  },
  "satellites": [
    {
      "satellite_id": "P05-S05",
      "norad_id": 56104,
      "satellite_name": "STARLINK-6062",
      "cospar_id": "2023-046M",
      "shell_id": "starlink-real-43deg-490km",
      "plane_id": 4,
      "slot_id": 4,
      "epoch": "2026-06-24T14:11:10.690080",
      "inclination": 43.0017,
      "raan": 277.58269999999993,
      "eccentricity": 0.00015388,
      "argument_of_perigee": 284.6332,
      "mean_anomaly": 75.43489999999997,
      "mean_motion": 15.27575088,
      "bstar": 0.00001512855,
      "status": "active",
      "raw_omm": {
        "OBJECT_NAME": "STARLINK-6062",
        "OBJECT_ID": "2023-046M",
        "EPOCH": "2026-06-24T14:11:10.690080",
        "MEAN_MOTION": 15.27575088,
        "ECCENTRICITY": 0.00015388,
        "INCLINATION": 43.0017,
        "RA_OF_ASC_NODE": 277.5827,
        "ARG_OF_PERICENTER": 284.6332,
        "MEAN_ANOMALY": 75.4349,
        "EPHEMERIS_TYPE": 0,
        "CLASSIFICATION_TYPE": "U",
        "NORAD_CAT_ID": 56104,
        "ELEMENT_SET_NO": 999,
        "REV_AT_EPOCH": 17838,
        "BSTAR": 0.00001512855,
        "MEAN_MOTION_DOT": 0.00000154,
        "MEAN_MOTION_DDOT": 0
      },
      "source": "celestrak",
      "source_url": "https://celestrak.org/NORAD/elements/gp.php?NAME=STARLINK&FORMAT=JSON",
      "catalog_fingerprint": "ba85ff7c"
    },
    {
      "satellite_id": "P05-S06",
      "norad_id": 67102,
      "satellite_name": "STARLINK-36255",
      "cospar_id": "2025-299A",
      "shell_id": "starlink-real-43deg-490km",
      "plane_id": 4,
      "slot_id": 5,
      "epoch": "2026-06-25T18:21:06.958368",
      "inclination": 42.9975,
      "raan": 278.75559999999996,
      "eccentricity": 0.0001375,
      "argument_of_perigee": 263.0005,
      "mean_anomaly": 97.06900000000002,
      "mean_motion": 15.27600309,
      "bstar": 0.00059406,
      "status": "active",
      "raw_omm": {
        "OBJECT_NAME": "STARLINK-36255",
        "OBJECT_ID": "2025-299A",
        "EPOCH": "2026-06-25T18:21:06.958368",
        "MEAN_MOTION": 15.27600309,
        "ECCENTRICITY": 0.0001375,
        "INCLINATION": 42.9975,
        "RA_OF_ASC_NODE": 278.7556,
        "ARG_OF_PERICENTER": 263.0005,
        "MEAN_ANOMALY": 97.069,
        "EPHEMERIS_TYPE": 0,
        "CLASSIFICATION_TYPE": "U",
        "NORAD_CAT_ID": 67102,
        "ELEMENT_SET_NO": 999,
        "REV_AT_EPOCH": 2964,
        "BSTAR": 0.00059406,
        "MEAN_MOTION_DOT": 0.00016131,
        "MEAN_MOTION_DDOT": 0
      },
      "source": "celestrak",
      "source_url": "https://celestrak.org/NORAD/elements/gp.php?NAME=STARLINK&FORMAT=JSON",
      "catalog_fingerprint": "ba85ff7c"
    },
    {
      "satellite_id": "P05-S07",
      "norad_id": 58593,
      "satellite_name": "STARLINK-31094",
      "cospar_id": "2023-200E",
      "shell_id": "starlink-real-43deg-490km",
      "plane_id": 4,
      "slot_id": 6,
      "epoch": "2026-06-25T14:06:15.259968",
      "inclination": 43.0044,
      "raan": 279.40200000000004,
      "eccentricity": 0.0001216,
      "argument_of_perigee": 295.73029999999994,
      "mean_anomaly": 64.34230000000002,
      "mean_motion": 15.27579095,
      "bstar": 0.000056283,
      "status": "active",
      "raw_omm": {
        "OBJECT_NAME": "STARLINK-31094",
        "OBJECT_ID": "2023-200E",
        "EPOCH": "2026-06-25T14:06:15.259968",
        "MEAN_MOTION": 15.27579095,
        "ECCENTRICITY": 0.0001216,
        "INCLINATION": 43.0044,
        "RA_OF_ASC_NODE": 279.402,
        "ARG_OF_PERICENTER": 295.7303,
        "MEAN_ANOMALY": 64.3423,
        "EPHEMERIS_TYPE": 0,
        "CLASSIFICATION_TYPE": "U",
        "NORAD_CAT_ID": 58593,
        "ELEMENT_SET_NO": 999,
        "REV_AT_EPOCH": 14011,
        "BSTAR": 0.000056283,
        "MEAN_MOTION_DOT": 0.00001287,
        "MEAN_MOTION_DDOT": 0
      },
      "source": "celestrak",
      "source_url": "https://celestrak.org/NORAD/elements/gp.php?NAME=STARLINK&FORMAT=JSON",
      "catalog_fingerprint": "ba85ff7c"
    },
    {
      "satellite_id": "P05-S08",
      "norad_id": 67106,
      "satellite_name": "STARLINK-36259",
      "cospar_id": "2025-299E",
      "shell_id": "starlink-real-43deg-490km",
      "plane_id": 4,
      "slot_id": 7,
      "epoch": "2026-06-25T16:00:42.183360",
      "inclination": 43.0012,
      "raan": 278.8805,
      "eccentricity": 0.0000451,
      "argument_of_perigee": 264.8577,
      "mean_anomaly": 95.22230000000002,
      "mean_motion": 15.27614235,
      "bstar": 0.00071843,
      "status": "active",
      "raw_omm": {
        "OBJECT_NAME": "STARLINK-36259",
        "OBJECT_ID": "2025-299E",
        "EPOCH": "2026-06-25T16:00:42.183360",
        "MEAN_MOTION": 15.27614235,
        "ECCENTRICITY": 0.0000451,
        "INCLINATION": 43.0012,
        "RA_OF_ASC_NODE": 278.8805,
        "ARG_OF_PERICENTER": 264.8577,
        "MEAN_ANOMALY": 95.2223,
        "EPHEMERIS_TYPE": 0,
        "CLASSIFICATION_TYPE": "U",
        "NORAD_CAT_ID": 67106,
        "ELEMENT_SET_NO": 999,
        "REV_AT_EPOCH": 2963,
        "BSTAR": 0.00071843,
        "MEAN_MOTION_DOT": 0.00019581,
        "MEAN_MOTION_DDOT": 0
      },
      "source": "celestrak",
      "source_url": "https://celestrak.org/NORAD/elements/gp.php?NAME=STARLINK&FORMAT=JSON",
      "catalog_fingerprint": "ba85ff7c"
    },
    {
      "satellite_id": "P06-S01",
      "norad_id": 63963,
      "satellite_name": "STARLINK-33801",
      "cospar_id": "2025-099M",
      "shell_id": "starlink-real-43deg-490km",
      "plane_id": 5,
      "slot_id": 0,
      "epoch": "2026-06-25T14:45:34.868160",
      "inclination": 43.0031,
      "raan": 286.5789,
      "eccentricity": 0.0005344,
      "argument_of_perigee": 291.9683,
      "mean_anomaly": 68.06,
      "mean_motion": 15.27607557,
      "bstar": 0.0011218,
      "status": "active",
      "raw_omm": {
        "OBJECT_NAME": "STARLINK-33801",
        "OBJECT_ID": "2025-099M",
        "EPOCH": "2026-06-25T14:45:34.868160",
        "MEAN_MOTION": 15.27607557,
        "ECCENTRICITY": 0.0005344,
        "INCLINATION": 43.0031,
        "RA_OF_ASC_NODE": 286.5789,
        "ARG_OF_PERICENTER": 291.9683,
        "MEAN_ANOMALY": 68.06,
        "EPHEMERIS_TYPE": 0,
        "CLASSIFICATION_TYPE": "U",
        "NORAD_CAT_ID": 63963,
        "ELEMENT_SET_NO": 999,
        "REV_AT_EPOCH": 6384,
        "BSTAR": 0.0011218,
        "MEAN_MOTION_DOT": 0.00030773,
        "MEAN_MOTION_DDOT": 0
      },
      "source": "celestrak",
      "source_url": "https://celestrak.org/NORAD/elements/gp.php?NAME=STARLINK&FORMAT=JSON",
      "catalog_fingerprint": "ba85ff7c"
    },
    {
      "satellite_id": "P06-S02",
      "norad_id": 63916,
      "satellite_name": "STARLINK-33910",
      "cospar_id": "2025-095AC",
      "shell_id": "starlink-real-43deg-490km",
      "plane_id": 5,
      "slot_id": 1,
      "epoch": "2026-06-25T17:15:03.843072",
      "inclination": 43.0014,
      "raan": 285.76279999999997,
      "eccentricity": 0.0002137,
      "argument_of_perigee": 278.40959999999995,
      "mean_anomaly": 81.65129999999999,
      "mean_motion": 15.27621364,
      "bstar": 0.0012422,
      "status": "active",
      "raw_omm": {
        "OBJECT_NAME": "STARLINK-33910",
        "OBJECT_ID": "2025-095AC",
        "EPOCH": "2026-06-25T17:15:03.843072",
        "MEAN_MOTION": 15.27621364,
        "ECCENTRICITY": 0.0002137,
        "INCLINATION": 43.0014,
        "RA_OF_ASC_NODE": 285.7628,
        "ARG_OF_PERICENTER": 278.4096,
        "MEAN_ANOMALY": 81.6513,
        "EPHEMERIS_TYPE": 0,
        "CLASSIFICATION_TYPE": "U",
        "NORAD_CAT_ID": 63916,
        "ELEMENT_SET_NO": 999,
        "REV_AT_EPOCH": 6430,
        "BSTAR": 0.0012422,
        "MEAN_MOTION_DOT": 0.00034124,
        "MEAN_MOTION_DDOT": 0
      },
      "source": "celestrak",
      "source_url": "https://celestrak.org/NORAD/elements/gp.php?NAME=STARLINK&FORMAT=JSON",
      "catalog_fingerprint": "ba85ff7c"
    }
  ]
}